[{"OBJECT_NAME":"STARLINK-3111","OBJECT_ID":"2021-104L","EPOCH":"2025-08-16T07:03:30.804192","MEAN_MOTION":15.08838472,"ECCENTRICITY":0.00013,"INCLINATION":53.218,"RA_OF_ASC_NODE":71.1761,"ARG_OF_PERICENTER":92.105,"MEAN_ANOMALY":268.0091,"EPHEMERIS_TYPE":0,"CLASSIFICATION_TYPE":"U","NORAD_CAT_ID":49418,"ELEMENT_SET_NO":999,"REV_AT_EPOCH":20872,"BSTAR":2.0718e-5,"MEAN_MOTION_DOT":4.2e-7,"MEAN_MOTION_DDOT":0},{"OBJECT_NAME":"STARLINK-3120","OBJECT_ID":"2021-104M","EPOCH":"2025-08-15T21:15:18.390528","MEAN_MOTION":15.08835418,"ECCENTRICITY":0.0001408,"INCLINATION":53.2166,"RA_OF_ASC_NODE":73.0102,"ARG_OF_PERICENTER":86.7251,"MEAN_ANOMALY":273.3902,"EPHEMERIS_TYPE":0,"CLASSIFICATION_TYPE":"U","NORAD_CAT_ID":49419,"ELEMENT_SET_NO":999,"REV_AT_EPOCH":20755,"BSTAR":-2.5456e-5,"MEAN_MOTION_DOT":-6.93e-6,"MEAN_MOTION_DDOT":0},{"OBJECT_NAME":"STARLINK-3110","OBJECT_ID":"2021-104N","EPOCH":"2025-08-15T21:25:54.145920","MEAN_MOTION":15.08838484,"ECCENTRICITY":0.0001409,"INCLINATION":53.2185,"RA_OF_ASC_NODE":72.9777,"ARG_OF_PERICENTER":86.0891,"MEAN_ANOMALY":274.0262,"EPHEMERIS_TYPE":0,"CLASSIFICATION_TYPE":"U","NORAD_CAT_ID":49420,"ELEMENT_SET_NO":999,"REV_AT_EPOCH":20755,"BSTAR":7.4971e-5,"MEAN_MOTION_DOT":9.05e-6,"MEAN_MOTION_DDOT":0},{"OBJECT_NAME":"STARLINK-3112","OBJECT_ID":"2021-104P","EPOCH":"2025-08-16T06:10:29.396352","MEAN_MOTION":15.08848463,"ECCENTRICITY":0.0001485,"INCLINATION":53.217,"RA_OF_ASC_NODE":71.1504,"ARG_OF_PERICENTER":82.3219,"MEAN_ANOMALY":277.7941,"EPHEMERIS_TYPE":0,"CLASSIFICATION_TYPE":"U","NORAD_CAT_ID":49421,"ELEMENT_SET_NO":999,"REV_AT_EPOCH":20870,"BSTAR":2.2194e-6,"MEAN_MOTION_DOT":-2.53e-6,"MEAN_MOTION_DDOT":0},{"OBJECT_NAME":"STARLINK-3161","OBJECT_ID":"2021-104Q","EPOCH":"2025-08-14T23:49:01.320096","MEAN_MOTION":15.08844716,"ECCENTRICITY":0.0001368,"INCLINATION":53.2172,"RA_OF_ASC_NODE":77.3417,"ARG_OF_PERICENTER":88.4433,"MEAN_ANOMALY":271.6716,"EPHEMERIS_TYPE":0,"CLASSIFICATION_TYPE":"U","NORAD_CAT_ID":49422,"ELEMENT_SET_NO":999,"REV_AT_EPOCH":20852,"BSTAR":5.5369e-5,"MEAN_MOTION_DOT":5.93e-6,"MEAN_MOTION_DDOT":0},{"OBJECT_NAME":"STARLINK-3149","OBJECT_ID":"2021-104R","EPOCH":"2025-08-16T06:52:57.216576","MEAN_MOTION":15.08835384,"ECCENTRICITY":0.0001405,"INCLINATION":53.2174,"RA_OF_ASC_NODE":71.4018,"ARG_OF_PERICENTER":87.5175,"MEAN_ANOMALY":272.5978,"EPHEMERIS_TYPE":0,"CLASSIFICATION_TYPE":"U","NORAD_CAT_ID":49423,"ELEMENT_SET_NO":999,"REV_AT_EPOCH":20870,"BSTAR":8.3558e-6,"MEAN_MOTION_DOT":-1.55e-6,"MEAN_MOTION_DDOT":0},{"OBJECT_NAME":"STARLINK-3135","OBJECT_ID":"2021-104S","EPOCH":"2025-08-15T21:10:00.308064","MEAN_MOTION":15.08834366,"ECCENTRICITY":0.000128,"INCLINATION":53.2172,"RA_OF_ASC_NODE":73.0285,"ARG_OF_PERICENTER":95.3876,"MEAN_ANOMALY":264.7263,"EPHEMERIS_TYPE":0,"CLASSIFICATION_TYPE":"U","NORAD_CAT_ID":49424,"ELEMENT_SET_NO":999,"REV_AT_EPOCH":20755,"BSTAR":2.0455e-5,"MEAN_MOTION_DOT":3.8e-7,"MEAN_MOTION_DDOT":0},{"OBJECT_NAME":"STARLINK-3139","OBJECT_ID":"2021-104T","EPOCH":"2025-08-16T06:22:30.121824","MEAN_MOTION":15.08833978,"ECCENTRICITY":0.0001404,"INCLINATION":53.2179,"RA_OF_ASC_NODE":71.3189,"ARG_OF_PERICENTER":93.9207,"MEAN_ANOMALY":266.1946,"EPHEMERIS_TYPE":0,"CLASSIFICATION_TYPE":"U","NORAD_CAT_ID":49425,"ELEMENT_SET_NO":999,"REV_AT_EPOCH":20870,"BSTAR":-1.288e-5,"MEAN_MOTION_DOT":-4.93e-6,"MEAN_MOTION_DDOT":0},{"OBJECT_NAME":"STARLINK-3114","OBJECT_ID":"2021-104U","EPOCH":"2025-08-16T06:31:43.316832","MEAN_MOTION":15.08837633,"ECCENTRICITY":0.0001562,"INCLINATION":53.2192,"RA_OF_ASC_NODE":71.279,"ARG_OF_PERICENTER":99.2979,"MEAN_ANOMALY":260.819,"EPHEMERIS_TYPE":0,"CLASSIFICATION_TYPE":"U","NORAD_CAT_ID":49426,"ELEMENT_SET_NO":999,"REV_AT_EPOCH":20870,"BSTAR":-5.0833e-6,"MEAN_MOTION_DOT":-3.69e-6,"MEAN_MOTION_DDOT":0},{"OBJECT_NAME":"STARLINK-3131","OBJECT_ID":"2021-104V","EPOCH":"2025-08-16T06:17:11.895936","MEAN_MOTION":15.08837365,"ECCENTRICITY":0.00013,"INCLINATION":53.2171,"RA_OF_ASC_NODE":71.3357,"ARG_OF_PERICENTER":88.2838,"MEAN_ANOMALY":271.8303,"EPHEMERIS_TYPE":0,"CLASSIFICATION_TYPE":"U","NORAD_CAT_ID":49427,"ELEMENT_SET_NO":999,"REV_AT_EPOCH":20872,"BSTAR":7.3817e-6,"MEAN_MOTION_DOT":-1.7e-6,"MEAN_MOTION_DDOT":0},{"OBJECT_NAME":"STARLINK-3121","OBJECT_ID":"2021-104W","EPOCH":"2025-08-15T23:27:46.090656","MEAN_MOTION":15.08841828,"ECCENTRICITY":0.0001404,"INCLINATION":53.2172,"RA_OF_ASC_NODE":72.5136,"ARG_OF_PERICENTER":82.3646,"MEAN_ANOMALY":277.7506,"EPHEMERIS_TYPE":0,"CLASSIFICATION_TYPE":"U","NORAD_CAT_ID":49428,"ELEMENT_SET_NO":999,"REV_AT_EPOCH":20866,"BSTAR":1.2454e-6,"MEAN_MOTION_DOT":-2.68e-6,"MEAN_MOTION_DDOT":0},{"OBJECT_NAME":"STARLINK-3138","OBJECT_ID":"2021-104Y","EPOCH":"2025-08-16T06:49:02.523936","MEAN_MOTION":15.08837464,"ECCENTRICITY":0.0001294,"INCLINATION":53.2169,"RA_OF_ASC_NODE":71.5011,"ARG_OF_PERICENTER":87.7614,"MEAN_ANOMALY":272.3526,"EPHEMERIS_TYPE":0,"CLASSIFICATION_TYPE":"U","NORAD_CAT_ID":49430,"ELEMENT_SET_NO":999,"REV_AT_EPOCH":20870,"BSTAR":2.2911e-5,"MEAN_MOTION_DOT":7.7e-7,"MEAN_MOTION_DDOT":0},{"OBJECT_NAME":"STARLINK-3153","OBJECT_ID":"2021-104Z","EPOCH":"2025-08-16T07:14:08.755008","MEAN_MOTION":15.08835729,"ECCENTRICITY":0.000135,"INCLINATION":53.2173,"RA_OF_ASC_NODE":71.3276,"ARG_OF_PERICENTER":84.6624,"MEAN_ANOMALY":275.4522,"EPHEMERIS_TYPE":0,"CLASSIFICATION_TYPE":"U","NORAD_CAT_ID":49431,"ELEMENT_SET_NO":999,"REV_AT_EPOCH":20871,"BSTAR":-2.3545e-5,"MEAN_MOTION_DOT":-6.63e-6,"MEAN_MOTION_DDOT":0},{"OBJECT_NAME":"STARLINK-3158","OBJECT_ID":"2021-104AA","EPOCH":"2025-08-15T13:26:22.324704","MEAN_MOTION":15.08836556,"ECCENTRICITY":0.0001395,"INCLINATION":53.2177,"RA_OF_ASC_NODE":64.4751,"ARG_OF_PERICENTER":89.5696,"MEAN_ANOMALY":270.5456,"EPHEMERIS_TYPE":0,"CLASSIFICATION_TYPE":"U","NORAD_CAT_ID":49432,"ELEMENT_SET_NO":999,"REV_AT_EPOCH":20873,"BSTAR":6.08e-6,"MEAN_MOTION_DOT":-1.91e-6,"MEAN_MOTION_DDOT":0},{"OBJECT_NAME":"STARLINK-3079","OBJECT_ID":"2021-104AB","EPOCH":"2025-08-15T13:26:19.384512","MEAN_MOTION":15.0883687,"ECCENTRICITY":0.0001301,"INCLINATION":53.2171,"RA_OF_ASC_NODE":54.4735,"ARG_OF_PERICENTER":85.0423,"MEAN_ANOMALY":275.0718,"EPHEMERIS_TYPE":0,"CLASSIFICATION_TYPE":"U","NORAD_CAT_ID":49433,"ELEMENT_SET_NO":999,"REV_AT_EPOCH":20888,"BSTAR":3.621e-5,"MEAN_MOTION_DOT":2.88e-6,"MEAN_MOTION_DDOT":0},{"OBJECT_NAME":"STARLINK-3134","OBJECT_ID":"2021-104AC","EPOCH":"2025-08-16T06:26:26.952000","MEAN_MOTION":15.08833919,"ECCENTRICITY":0.0001306,"INCLINATION":53.2171,"RA_OF_ASC_NODE":71.4471,"ARG_OF_PERICENTER":89.3806,"MEAN_ANOMALY":270.7336,"EPHEMERIS_TYPE":0,"CLASSIFICATION_TYPE":"U","NORAD_CAT_ID":49434,"ELEMENT_SET_NO":999,"REV_AT_EPOCH":20870,"BSTAR":4.3807e-6,"MEAN_MOTION_DOT":-2.18e-6,"MEAN_MOTION_DDOT":0},{"OBJECT_NAME":"STARLINK-3117","OBJECT_ID":"2021-104AD","EPOCH":"2025-08-16T05:26:51.385632","MEAN_MOTION":15.08837006,"ECCENTRICITY":0.0001288,"INCLINATION":53.2182,"RA_OF_ASC_NODE":51.4792,"ARG_OF_PERICENTER":87.4662,"MEAN_ANOMALY":272.6478,"EPHEMERIS_TYPE":0,"CLASSIFICATION_TYPE":"U","NORAD_CAT_ID":49435,"ELEMENT_SET_NO":999,"REV_AT_EPOCH":20898,"BSTAR":2.7928e-5,"MEAN_MOTION_DOT":1.57e-6,"MEAN_MOTION_DDOT":0}]
