STARLINK-3111           
1 49418U 21104L   25228.29410653  .00000042  00000+0  20718-4 0  9990
2 49418  53.2180  71.1761 0001300  92.1050 268.0091 15.08838472208722
STARLINK-3120           
1 49419U 21104M   25227.88562952 -.00000693  00000+0 -25456-4 0  9993
2 49419  53.2166  73.0102 0001408  86.7251 273.3902 15.08835418207555
STARLINK-3110           
1 49420U 21104N   25227.89298780  .00000905  00000+0  74971-4 0  9991
2 49420  53.2185  72.9777 0001409  86.0891 274.0262 15.08838484207551
STARLINK-3112           
1 49421U 21104P   25228.25728468 -.00000253  00000+0  22194-5 0  9992
2 49421  53.2170  71.1504 0001485  82.3219 277.7941 15.08848463208702
STARLINK-3161           
1 49422U 21104Q   25226.99237639  .00000593  00000+0  55369-4 0  9992
2 49422  53.2172  77.3417 0001368  88.4433 271.6716 15.08844716208521
STARLINK-3149           
1 49423U 21104R   25228.28677334 -.00000155  00000+0  83558-5 0  9994
2 49423  53.2174  71.4018 0001405  87.5175 272.5978 15.08835384208702
STARLINK-3135           
1 49424U 21104S   25227.88194801  .00000038  00000+0  20455-4 0  9998
2 49424  53.2172  73.0285 0001280  95.3876 264.7263 15.08834366207552
STARLINK-3139           
1 49425U 21104T   25228.26562641 -.00000493  00000+0 -12880-4 0  9993
2 49425  53.2179  71.3189 0001404  93.9207 266.1946 15.08833978208704
STARLINK-3114           
1 49426U 21104U   25228.27202913 -.00000369  00000+0 -50833-5 0  9991
2 49426  53.2192  71.2790 0001562  99.2979 260.8190 15.08837633208701
STARLINK-3131           
1 49427U 21104V   25228.26194324 -.00000170  00000+0  73817-5 0  9993
2 49427  53.2171  71.3357 0001300  88.2838 271.8303 15.08837365208723
STARLINK-3121           
1 49428U 21104W   25227.97761679 -.00000268  00000+0  12454-5 0  9992
2 49428  53.2172  72.5136 0001404  82.3646 277.7506 15.08841828208662
STARLINK-3138           
1 49430U 21104Y   25228.28405699  .00000077  00000+0  22911-4 0  9992
2 49430  53.2169  71.5011 0001294  87.7614 272.3526 15.08837464208702
STARLINK-3153           
1 49431U 21104Z   25228.30149022 -.00000663  00000+0 -23545-4 0  9998
2 49431  53.2173  71.3276 0001350  84.6624 275.4522 15.08835729208712
STARLINK-3158           
1 49432U 21104AA  25227.55998061 -.00000191  00000+0  60800-5 0  9991
2 49432  53.2177  64.4751 0001395  89.5696 270.5456 15.08836556208733
STARLINK-3079           
1 49433U 21104AB  25227.55994658  .00000288  00000+0  36210-4 0  9993
2 49433  53.2171  54.4735 0001301  85.0423 275.0718 15.08836870208881
STARLINK-3134           
1 49434U 21104AC  25228.26836750 -.00000218  00000+0  43807-5 0  9996
2 49434  53.2171  71.4471 0001306  89.3806 270.7336 15.08833919208705
STARLINK-3117           
1 49435U 21104AD  25228.22698363  .00000157  00000+0  27928-4 0  9995
2 49435  53.2182  51.4792 0001288  87.4662 272.6478 15.08837006208989
